{
    "links": {
        "self": "http://www.neowsapp.com/rest/v1/neo/3385645?api_key=iIulBulltgU6a56xZRHN4H3l9WmuAYTsLGpBGhQ2"
    },
    "id": "3385645",
    "neo_reference_id": "3385645",
    "name": "(2007 SH)",
    "designation": "2007 SH",
    "nasa_jpl_url": "http://ssd.jpl.nasa.gov/sbdb.cgi?sstr=3385645",
    "absolute_magnitude_h": 26.2,
    "estimated_diameter": {
        "kilometers": {
            "estimated_diameter_min": 0.0152951935,
            "estimated_diameter_max": 0.0342010925
        },
        "meters": {
            "estimated_diameter_min": 15.2951935344,
            "estimated_diameter_max": 34.201092472
        },
        "miles": {
            "estimated_diameter_min": 0.0095039897,
            "estimated_diameter_max": 0.021251567
        },
        "feet": {
            "estimated_diameter_min": 50.1810827555,
            "estimated_diameter_max": 112.2083122258
        }
    },
    "is_potentially_hazardous_asteroid": false,
    "close_approach_data": [
        {
            "close_approach_date": "2007-09-14",
            "close_approach_date_full": "2007-Sep-14 17:41",
            "epoch_date_close_approach": 1189791660000,
            "relative_velocity": {
                "kilometers_per_second": "12.3678104489",
                "kilometers_per_hour": "44524.1176161048",
                "miles_per_hour": "27665.5551931847"
            },
            "miss_distance": {
                "astronomical": "0.0133343175",
                "lunar": "5.1870495075",
                "kilometers": "1994785.495903725",
                "miles": "1239502.230672405"
            },
            "orbiting_body": "Earth"
        }
    ],
    "orbital_data": {
        "orbit_id": "9",
        "orbit_determination_date": "2017-04-06 09:05:57",
        "first_observation_date": "2007-09-17",
        "last_observation_date": "2007-09-19",
        "data_arc_in_days": 2,
        "observations_used": 26,
        "orbit_uncertainty": "8",
        "minimum_orbit_intersection": ".0106391",
        "jupiter_tisserand_invariant": "4.003",
        "epoch_osculation": "2454361.5",
        "eccentricity": ".4731507324274636",
        "semi_major_axis": "1.72963565701041",
        "inclination": "11.68467968377748",
        "ascending_node_longitude": "353.0027474180527",
        "orbital_period": "830.8648217167398",
        "perihelion_distance": ".9112572790632775",
        "perihelion_argument": "311.1311971852867",
        "aphelion_distance": "2.548014034957543",
        "perihelion_time": "2454321.598034255110",
        "mean_anomaly": "17.28886251132876",
        "mean_motion": ".4332834783595302",
        "equinox": "J2000",
        "orbit_class": {
            "orbit_class_type": "APO",
            "orbit_class_description": "Near-Earth asteroid orbits which cross the Earth’s orbit similar to that of 1862 Apollo",
            "orbit_class_range": "a (semi-major axis) > 1.0 AU; q (perihelion) < 1.017 AU"
        }
    },
    "is_sentry_object": false
}